[{"OBJECT_NAME":"CALSPHERE 1","OBJECT_ID":"1964-063C","EPOCH":"2026-03-09T22:33:13.790880","MEAN_MOTION":13.76498162,"ECCENTRICITY":0.00237381,"INCLINATION":90.216,"RA_OF_ASC_NODE":69.4558,"ARG_OF_PERICENTER":229.9734,"MEAN_ANOMALY":161.7441,"EPHEMERIS_TYPE":0,"CLASSIFICATION_TYPE":"U","NORAD_CAT_ID":900,"ELEMENT_SET_NO":999,"REV_AT_EPOCH":5777,"BSTAR":0.00076481141,"MEAN_MOTION_DOT":7.59e-6,"MEAN_MOTION_DDOT":0},{"OBJECT_NAME":"DIAMANT B-P4 DEB","OBJECT_ID":"1975-010E","EPOCH":"2026-03-09T10:50:13.575264","MEAN_MOTION":13.94026985,"ECCENTRICITY":0.01849192,"INCLINATION":49.8139,"RA_OF_ASC_NODE":128.9304,"ARG_OF_PERICENTER":357.7197,"MEAN_ANOMALY":2.2841,"EPHEMERIS_TYPE":0,"CLASSIFICATION_TYPE":"U","NORAD_CAT_ID":7659,"ELEMENT_SET_NO":999,"REV_AT_EPOCH":59143,"BSTAR":0.00026436362,"MEAN_MOTION_DOT":2.57e-6,"MEAN_MOTION_DDOT":0}]
